start=new Date('2023-02-13T00:00:00.000Z').valueOf();
sats=[{"CLASSIFICATION_TYPE":"U","EPHEMERIS_TYPE":"0","ARG_OF_PERICENTER":"78.9344","MEAN_MOTION":"15.06397778","PERIAPSIS":"546.092","GP_ID":"225233650","TIME_SYSTEM":"UTC","INCLINATION":"53.0523","MEAN_MOTION_DDOT":"0.0000000000000","EPOCH":"2023-02-12T06:33:18.243648","TLE_LINE1":"1 48353U 21038A   23043.27312782  .00000307  00000-0  39518-4 0  9991","OBJECT_TYPE":"PAYLOAD","DECAY_DATE":null,"REF_FRAME":"TEME","NORAD_CAT_ID":"48353","MEAN_MOTION_DOT":"0.00000307","LAUNCH_DATE":"2021-05-04","CENTER_NAME":"EARTH","ELEMENT_SET_NO":"999","BSTAR":"0.00003951800000","REV_AT_EPOCH":"9800","PERIOD":"95.592","OBJECT_ID":"2021-038A","RCS_SIZE":"LARGE","SITE":"AFETR","MEAN_ANOMALY":"281.1828","MEAN_ELEMENT_THEORY":"SGP4","RA_OF_ASC_NODE":"355.8588","ECCENTRICITY":"0.00016300","SEMIMAJOR_AXIS":"6925.355","APOAPSIS":"548.349","TLE_LINE2":"2 48353  53.0523 355.8588 0001630  78.9344 281.1828 15.06397778 98000","FILE":"3787692","COUNTRY_CODE":"US","OBJECT_NAME":"STARLINK-2613"},{"RA_OF_ASC_NODE":"356.4627","ECCENTRICITY":"0.00014010","SEMIMAJOR_AXIS":"6925.252","APOAPSIS":"548.087","TLE_LINE2":"2 48354  53.0537 356.4627 0001401 117.2607 242.8524 15.06431556 97988","FILE":"3787692","COUNTRY_CODE":"US","OBJECT_NAME":"STARLINK-2674","OBJECT_ID":"2021-038B","RCS_SIZE":"LARGE","SITE":"AFETR","MEAN_ANOMALY":"242.8524","MEAN_ELEMENT_THEORY":"SGP4","OBJECT_TYPE":"PAYLOAD","DECAY_DATE":null,"REF_FRAME":"TEME","MEAN_MOTION_DOT":"0.00033974","NORAD_CAT_ID":"48354","CENTER_NAME":"EARTH","LAUNCH_DATE":"2021-05-04","ELEMENT_SET_NO":"999","BSTAR":"0.00228680000000","REV_AT_EPOCH":"9798","PERIOD":"95.590","CLASSIFICATION_TYPE":"U","EPHEMERIS_TYPE":"0","ARG_OF_PERICENTER":"117.2607","MEAN_MOTION":"15.06431556","PERIAPSIS":"546.147","GP_ID":"225233898","TIME_SYSTEM":"UTC","INCLINATION":"53.0537","MEAN_MOTION_DDOT":"0.0000000000000","EPOCH":"2023-02-12T03:16:54.194304","TLE_LINE1":"1 48354U 21038B   23043.13673836  .00033974  00000-0  22868-2 0  9991"},{"FILE":"3787692","OBJECT_NAME":"STARLINK-2635","COUNTRY_CODE":"US","APOAPSIS":"548.212","TLE_LINE2":"2 48355  53.0532 354.3994 0001555  86.8567 273.2600 15.06425632 98054","SEMIMAJOR_AXIS":"6925.270","ECCENTRICITY":"0.00015550","RA_OF_ASC_NODE":"354.3994","MEAN_ELEMENT_THEORY":"SGP4","SITE":"AFETR","MEAN_ANOMALY":"273.2600","RCS_SIZE":"LARGE","OBJECT_ID":"2021-038C","PERIOD":"95.591","BSTAR":"0.00154650000000","REV_AT_EPOCH":"9805","ELEMENT_SET_NO":"999","LAUNCH_DATE":"2021-05-04","CENTER_NAME":"EARTH","MEAN_MOTION_DOT":"0.00022845","NORAD_CAT_ID":"48355","OBJECT_TYPE":"PAYLOAD","REF_FRAME":"TEME","DECAY_DATE":null,"TLE_LINE1":"1 48355U 21038C   23043.59748511  .00022845  00000-0  15465-2 0  9995","EPOCH":"2023-02-12T14:20:22.713504","MEAN_MOTION_DDOT":"0.0000000000000","INCLINATION":"53.0532","GP_ID":"225235147","TIME_SYSTEM":"UTC","MEAN_MOTION":"15.06425632","PERIAPSIS":"546.058","CLASSIFICATION_TYPE":"U","EPHEMERIS_TYPE":"0","ARG_OF_PERICENTER":"86.8567"},{"RCS_SIZE":"LARGE","OBJECT_ID":"2021-038D","MEAN_ELEMENT_THEORY":"SGP4","SITE":"AFETR","MEAN_ANOMALY":"253.3347","ECCENTRICITY":"0.00019280","RA_OF_ASC_NODE":"356.5014","OBJECT_NAME":"STARLINK-2637","COUNTRY_CODE":"US","FILE":"3787692","TLE_LINE2":"2 48356  53.0548 356.5014 0001928 106.7854 253.3347 15.06430139 97980","APOAPSIS":"548.456","SEMIMAJOR_AXIS":"6925.256","INCLINATION":"53.0548","TIME_SYSTEM":"UTC","GP_ID":"225235387","PERIAPSIS":"545.786","MEAN_MOTION":"15.06430139","EPHEMERIS_TYPE":"0","ARG_OF_PERICENTER":"106.7854","CLASSIFICATION_TYPE":"U","TLE_LINE1":"1 48356U 21038D   23043.12937840  .00047842  00000-0  32064-2 0  9998","EPOCH":"2023-02-12T03:06:18.293760","MEAN_MOTION_DDOT":"0.0000000000000","LAUNCH_DATE":"2021-05-04","CENTER_NAME":"EARTH","MEAN_MOTION_DOT":"0.00047842","NORAD_CAT_ID":"48356","DECAY_DATE":null,"REF_FRAME":"TEME","OBJECT_TYPE":"PAYLOAD","PERIOD":"95.590","REV_AT_EPOCH":"9798","BSTAR":"0.00320640000000","ELEMENT_SET_NO":"999"},{"PERIOD":"95.593","REV_AT_EPOCH":"9864","BSTAR":"0.00227570000000","ELEMENT_SET_NO":"999","CENTER_NAME":"EARTH","LAUNCH_DATE":"2021-05-04","NORAD_CAT_ID":"48357","MEAN_MOTION_DOT":"0.00033760","DECAY_DATE":null,"REF_FRAME":"TEME","OBJECT_TYPE":"PAYLOAD","TLE_LINE1":"1 48357U 21038E   23043.59287011  .00033760  00000-0  22757-2 0  9990","EPOCH":"2023-02-12T14:13:43.977504","MEAN_MOTION_DDOT":"0.0000000000000","INCLINATION":"53.0528","TIME_SYSTEM":"UTC","GP_ID":"225268862","PERIAPSIS":"546.109","MEAN_MOTION":"15.06380677","EPHEMERIS_TYPE":"0","ARG_OF_PERICENTER":"114.3093","CLASSIFICATION_TYPE":"U","COUNTRY_CODE":"US","OBJECT_NAME":"STARLINK-2636","FILE":"3787802","TLE_LINE2":"2 48357  53.0528 354.4555 0001680 114.3093 245.8072 15.06380677 98647","APOAPSIS":"548.436","SEMIMAJOR_AXIS":"6925.408","ECCENTRICITY":"0.00016800","RA_OF_ASC_NODE":"354.4555","MEAN_ELEMENT_THEORY":"SGP4","SITE":"AFETR","MEAN_ANOMALY":"245.8072","RCS_SIZE":"LARGE","OBJECT_ID":"2021-038E"},{"RCS_SIZE":"LARGE","OBJECT_ID":"2021-038F","MEAN_ELEMENT_THEORY":"SGP4","SITE":"AFETR","MEAN_ANOMALY":"266.4141","RA_OF_ASC_NODE":"354.4548","ECCENTRICITY":"0.00027480","TLE_LINE2":"2 48358  53.0530 354.4548 0002748  93.7162 266.4141 15.06390850 98040","APOAPSIS":"549.145","OBJECT_NAME":"STARLINK-2624","COUNTRY_CODE":"US","FILE":"3787692","SEMIMAJOR_AXIS":"6925.377","GP_ID":"225234398","TIME_SYSTEM":"UTC","INCLINATION":"53.0530","EPHEMERIS_TYPE":"0","ARG_OF_PERICENTER":"93.7162","CLASSIFICATION_TYPE":"U","PERIAPSIS":"545.339","MEAN_MOTION":"15.06390850","TLE_LINE1":"1 48358U 21038F   23043.58644007  .00014630  00000-0  99924-3 0  9998","MEAN_MOTION_DDOT":"0.0000000000000","EPOCH":"2023-02-12T14:04:28.422048","MEAN_MOTION_DOT":"0.00014630","NORAD_CAT_ID":"48358","LAUNCH_DATE":"2021-05-04","CENTER_NAME":"EARTH","REF_FRAME":"TEME","DECAY_DATE":null,"OBJECT_TYPE":"PAYLOAD","REV_AT_EPOCH":"9804","BSTAR":"0.00099924000000","PERIOD":"95.593","ELEMENT_SET_NO":"999"},{"ELEMENT_SET_NO":"999","PERIOD":"95.593","REV_AT_EPOCH":"9928","BSTAR":"-0.00003736600000","REF_FRAME":"TEME","DECAY_DATE":null,"OBJECT_TYPE":"PAYLOAD","LAUNCH_DATE":"2021-05-04","CENTER_NAME":"EARTH","NORAD_CAT_ID":"48359","MEAN_MOTION_DOT":"-0.00000838","EPOCH":"2023-02-12T13:59:09.364128","MEAN_MOTION_DDOT":"0.0000000000000","TLE_LINE1":"1 48359U 21038G   23043.58274727 -.00000838  00000-0 -37366-4 0  9997","PERIAPSIS":"546.769","MEAN_MOTION":"15.06393998","EPHEMERIS_TYPE":"0","ARG_OF_PERICENTER":"88.6139","CLASSIFICATION_TYPE":"U","INCLINATION":"53.0525","GP_ID":"225270681","TIME_SYSTEM":"UTC","SEMIMAJOR_AXIS":"6925.367","COUNTRY_CODE":"US","OBJECT_NAME":"STARLINK-2628","FILE":"3787891","TLE_LINE2":"2 48359  53.0525 354.4726 0000668  88.6139 271.4926 15.06393998 99289","APOAPSIS":"547.695","ECCENTRICITY":"0.00006680","RA_OF_ASC_NODE":"354.4726","SITE":"AFETR","MEAN_ANOMALY":"271.4926","MEAN_ELEMENT_THEORY":"SGP4","OBJECT_ID":"2021-038G","RCS_SIZE":"LARGE"},{"RCS_SIZE":"LARGE","OBJECT_ID":"2021-038H","MEAN_ELEMENT_THEORY":"SGP4","SITE":"AFETR","MEAN_ANOMALY":"269.1965","ECCENTRICITY":"0.00020310","RA_OF_ASC_NODE":"354.4837","OBJECT_NAME":"STARLINK-2622","COUNTRY_CODE":"US","FILE":"3787692","TLE_LINE2":"2 48360  53.0531 354.4837 0002031  90.9257 269.1965 15.06379408 98044","APOAPSIS":"548.683","SEMIMAJOR_AXIS":"6925.412","INCLINATION":"53.0531","GP_ID":"225234888","TIME_SYSTEM":"UTC","PERIAPSIS":"545.870","MEAN_MOTION":"15.06379408","ARG_OF_PERICENTER":"90.9257","EPHEMERIS_TYPE":"0","CLASSIFICATION_TYPE":"U","TLE_LINE1":"1 48360U 21038H   23043.57906886 -.00002042  00000-0 -11825-3 0  9996","EPOCH":"2023-02-12T13:53:51.549504","MEAN_MOTION_DDOT":"0.0000000000000","LAUNCH_DATE":"2021-05-04","CENTER_NAME":"EARTH","MEAN_MOTION_DOT":"-0.00002042","NORAD_CAT_ID":"48360","DECAY_DATE":null,"REF_FRAME":"TEME","OBJECT_TYPE":"PAYLOAD","PERIOD":"95.593","REV_AT_EPOCH":"9804","BSTAR":"-0.00011825000000","ELEMENT_SET_NO":"999"},{"EPOCH":"2023-02-12T20:10:42.634272","MEAN_MOTION_DDOT":"0.0000000000000","TLE_LINE1":"1 48361U 21038J   23043.84077123 -.00003938  00000-0 -24575-3 0  9991","MEAN_MOTION":"15.06380530","PERIAPSIS":"546.493","CLASSIFICATION_TYPE":"U","EPHEMERIS_TYPE":"0","ARG_OF_PERICENTER":"96.0127","INCLINATION":"53.0531","TIME_SYSTEM":"UTC","GP_ID":"225270738","ELEMENT_SET_NO":"999","PERIOD":"95.593","BSTAR":"-0.00024575000000","REV_AT_EPOCH":"9867","OBJECT_TYPE":"PAYLOAD","DECAY_DATE":null,"REF_FRAME":"TEME","LAUNCH_DATE":"2021-05-04","CENTER_NAME":"EARTH","NORAD_CAT_ID":"48361","MEAN_MOTION_DOT":"-0.00003938","SITE":"AFETR","MEAN_ANOMALY":"264.0991","MEAN_ELEMENT_THEORY":"SGP4","OBJECT_ID":"2021-038J","RCS_SIZE":"LARGE","SEMIMAJOR_AXIS":"6925.408","FILE":"3787885","OBJECT_NAME":"STARLINK-2591","COUNTRY_CODE":"US","APOAPSIS":"548.054","TLE_LINE2":"2 48361  53.0531 353.3068 0001127  96.0127 264.0991 15.06380530 98677","ECCENTRICITY":"0.00011270","RA_OF_ASC_NODE":"353.3068"},{"REV_AT_EPOCH":"9800","BSTAR":"0.00224010000000","PERIOD":"95.593","ELEMENT_SET_NO":"999","MEAN_MOTION_DOT":"0.00033237","NORAD_CAT_ID":"48362","LAUNCH_DATE":"2021-05-04","CENTER_NAME":"EARTH","DECAY_DATE":null,"REF_FRAME":"TEME","OBJECT_TYPE":"PAYLOAD","TLE_LINE1":"1 48362U 21038K   23043.27684089  .00033237  00000-0  22401-2 0  9992","MEAN_MOTION_DDOT":"0.0000000000000","EPOCH":"2023-02-12T06:38:39.052896","GP_ID":"225233899","TIME_SYSTEM":"UTC","INCLINATION":"53.0564","EPHEMERIS_TYPE":"0","ARG_OF_PERICENTER":"73.8281","CLASSIFICATION_TYPE":"U","PERIAPSIS":"546.190","MEAN_MOTION":"15.06394196","TLE_LINE2":"2 48362  53.0564 355.9208 0001504  73.8281 286.2873 15.06394196 98006","APOAPSIS":"548.273","COUNTRY_CODE":"US","OBJECT_NAME":"STARLINK-2578","FILE":"3787692","SEMIMAJOR_AXIS":"6925.366","RA_OF_ASC_NODE":"355.9208","ECCENTRICITY":"0.00015040","MEAN_ELEMENT_THEORY":"SGP4","SITE":"AFETR","MEAN_ANOMALY":"286.2873","RCS_SIZE":"LARGE","OBJECT_ID":"2021-038K"}];
